{"type": "FeatureCollection", "features": [ {"type": "Feature", "properties": {"norad_id": 39155, "name": "COSMOS 2485 (747)", "group": "glo-ops", "lat": -59.71206529798978, "lon": 27.916416858263386, "alt_km": 19103.266953311333, "timestamp": "2025-12-16T17:51:11.192384+00:00", "meta": {"OBJECT_NAME": "COSMOS 2485 (747)", "OBJECT_ID": "2013-019A", "EPOCH": "2025-12-13T13:15:58.678272", "MEAN_MOTION": 2.13102947, "ECCENTRICITY": 0.00246467, "INCLINATION": 65.3142, "RA_OF_ASC_NODE": 79.8396, "ARG_OF_PERICENTER": 229.7128, "MEAN_ANOMALY": 130.0848, "EPHEMERIS_TYPE": 0, "CLASSIFICATION_TYPE": "U", "NORAD_CAT_ID": 39155, "ELEMENT_SET_NO": 999, "REV_AT_EPOCH": 9832, "BSTAR": 0, "MEAN_MOTION_DOT": -4.8e-07, "MEAN_MOTION_DDOT": 0}, "tle": {"line1": "1 39155U 13019A   25347.55276248 -.00000048  00000+0  00000+0 0  9998", "line2": "2 39155  65.3142  79.8396 0024646 229.7128 130.0848  2.13102947 98326"}}, "geometry": {"type": "Point", "coordinates": [27.916416858263386, -59.71206529798978]}}, {"type": "Feature", "properties": {"norad_id": 39620, "name": "COSMOS 2492 (754)", "group": "glo-ops", "lat": -35.95167604453836, "lon": -59.27540246651672, "alt_km": 19098.29501478125, "timestamp": "2025-12-16T17:51:11.192395+00:00", "meta": {"OBJECT_NAME": "COSMOS 2492 (754)", "OBJECT_ID": "2014-012A", "EPOCH": "2025-12-16T07:50:46.447872", "MEAN_MOTION": 2.13103282, "ECCENTRICITY": 0.0014254, "INCLINATION": 65.4058, "RA_OF_ASC_NODE": 320.149, "ARG_OF_PERICENTER": 313.159, "MEAN_ANOMALY": 46.7158, "EPHEMERIS_TYPE": 0, "CLASSIFICATION_TYPE": "U", "NORAD_CAT_ID": 39620, "ELEMENT_SET_NO": 999, "REV_AT_EPOCH": 9134, "BSTAR": 0, "MEAN_MOTION_DOT": -6.8e-07, "MEAN_MOTION_DDOT": 0}, "tle": {"line1": "1 39620U 14012A   25350.32692648 -.00000068  00000+0  00000+0 0  9996", "line2": "2 39620  65.4058 320.1490 0014254 313.1590  46.7158  2.13103282 91347"}}, "geometry": {"type": "Point", "coordinates": [-59.27540246651672, -35.95167604453836]}}, {"type": "Feature", "properties": {"norad_id": 40001, "name": "COSMOS 2500 (755)", "group": "glo-ops", "lat": -7.046566840224932, "lon": 143.13701253443546, "alt_km": 19113.316174434338, "timestamp": "2025-12-16T17:51:11.192406+00:00", "meta": {"OBJECT_NAME": "COSMOS 2500 (755)", "OBJECT_ID": "2014-032A", "EPOCH": "2025-12-15T13:27:13.709376", "MEAN_MOTION": 2.1310598, "ECCENTRICITY": 0.00081492, "INCLINATION": 65.3414, "RA_OF_ASC_NODE": 319.9362, "ARG_OF_PERICENTER": 219.0671, "MEAN_ANOMALY": 140.8696, "EPHEMERIS_TYPE": 0, "CLASSIFICATION_TYPE": "U", "NORAD_CAT_ID": 40001, "ELEMENT_SET_NO": 999, "REV_AT_EPOCH": 8954, "BSTAR": 0, "MEAN_MOTION_DOT": -6.8e-07, "MEAN_MOTION_DDOT": 0}, "tle": {"line1": "1 40001U 14032A   25349.56057534 -.00000068  00000+0  00000+0 0  9996", "line2": "2 40001  65.3414 319.9362 0008149 219.0671 140.8696  2.13105980 89540"}}, "geometry": {"type": "Point", "coordinates": [143.13701253443546, -7.046566840224932]}}, {"type": "Feature", "properties": {"norad_id": 40315, "name": "COSMOS 2501 (702K)", "group": "glo-ops", "lat": -10.262466362951281, "lon": -168.46762826846762, "alt_km": 19173.386297424324, "timestamp": "2025-12-16T17:51:11.192417+00:00", "meta": {"OBJECT_NAME": "COSMOS 2501 (702K)", "OBJECT_ID": "2014-075A", "EPOCH": "2025-12-14T09:54:07.365600", "MEAN_MOTION": 2.13101427, "ECCENTRICITY": 0.00201134, "INCLINATION": 63.6139, "RA_OF_ASC_NODE": 196.7672, "ARG_OF_PERICENTER": 204.2903, "MEAN_ANOMALY": 155.6894, "EPHEMERIS_TYPE": 0, "CLASSIFICATION_TYPE": "U", "NORAD_CAT_ID": 40315, "ELEMENT_SET_NO": 999, "REV_AT_EPOCH": 8591, "BSTAR": 0, "MEAN_MOTION_DOT": 9.7e-07, "MEAN_MOTION_DDOT": 0}, "tle": {"line1": "1 40315U 14075A   25348.41258525  .00000097  00000+0  00000+0 0  9998", "line2": "2 40315  63.6139 196.7672 0020113 204.2903 155.6894  2.13101427 85910"}}, "geometry": {"type": "Point", "coordinates": [-168.46762826846762, -10.262466362951281]}}, {"type": "Feature", "properties": {"norad_id": 41330, "name": "COSMOS 2514 (751)", "group": "glo-ops", "lat": 0.6996108304766231, "lon": -40.42258675543157, "alt_km": 19153.963976327377, "timestamp": "2025-12-16T17:51:11.192429+00:00", "meta": {"OBJECT_NAME": "COSMOS 2514 (751)", "OBJECT_ID": "2016-008A", "EPOCH": "2025-12-14T20:46:48.200160", "MEAN_MOTION": 2.13102693, "ECCENTRICITY": 0.00120161, "INCLINATION": 65.1326, "RA_OF_ASC_NODE": 319.3311, "ARG_OF_PERICENTER": 220.1002, "MEAN_ANOMALY": 139.8075, "EPHEMERIS_TYPE": 0, "CLASSIFICATION_TYPE": "U", "NORAD_CAT_ID": 41330, "ELEMENT_SET_NO": 999, "REV_AT_EPOCH": 7669, "BSTAR": 0, "MEAN_MOTION_DOT": -6.7e-07, "MEAN_MOTION_DDOT": 0}, "tle": {"line1": "1 41330U 16008A   25348.86583565 -.00000067  00000+0  00000+0 0  9996", "line2": "2 41330  65.1326 319.3311 0012016 220.1002 139.8075  2.13102693 76692"}}, "geometry": {"type": "Point", "coordinates": [-40.42258675543157, 0.6996108304766231]}}, {"type": "Feature", "properties": {"norad_id": 42939, "name": "COSMOS 2522 (752)", "group": "glo-ops", "lat": 47.68821648340343, "lon": -14.207739236088692, "alt_km": 19127.140035115182, "timestamp": "2025-12-16T17:51:11.192440+00:00", "meta": {"OBJECT_NAME": "COSMOS 2522 (752)", "OBJECT_ID": "2017-055A", "EPOCH": "2025-12-15T04:09:48.799872", "MEAN_MOTION": 2.13102036, "ECCENTRICITY": 0.00063989, "INCLINATION": 64.076, "RA_OF_ASC_NODE": 198.1461, "ARG_OF_PERICENTER": 224.2568, "MEAN_ANOMALY": 135.7703, "EPHEMERIS_TYPE": 0, "CLASSIFICATION_TYPE": "U", "NORAD_CAT_ID": 42939, "ELEMENT_SET_NO": 999, "REV_AT_EPOCH": 6405, "BSTAR": 0, "MEAN_MOTION_DOT": 1.03e-06, "MEAN_MOTION_DDOT": 0}, "tle": {"line1": "1 42939U 17055A   25349.17348148  .00000103  00000+0  00000+0 0  9996", "line2": "2 42939  64.0760 198.1461 0006398 224.2568 135.7703  2.13102036 64056"}}, "geometry": {"type": "Point", "coordinates": [-14.207739236088692, 47.68821648340343]}}, {"type": "Feature", "properties": {"norad_id": 43508, "name": "COSMOS 2527 (756)", "group": "glo-ops", "lat": 22.86056177665489, "lon": -111.07470142600545, "alt_km": 19119.998514707357, "timestamp": "2025-12-16T17:51:11.192451+00:00", "meta": {"OBJECT_NAME": "COSMOS 2527 (756)", "OBJECT_ID": "2018-053A", "EPOCH": "2025-12-13T17:26:08.291904", "MEAN_MOTION": 2.13102046, "ECCENTRICITY": 0.00086624, "INCLINATION": 65.4732, "RA_OF_ASC_NODE": 80.0985, "ARG_OF_PERICENTER": 225.2125, "MEAN_ANOMALY": 134.7297, "EPHEMERIS_TYPE": 0, "CLASSIFICATION_TYPE": "U", "NORAD_CAT_ID": 43508, "ELEMENT_SET_NO": 999, "REV_AT_EPOCH": 5832, "BSTAR": 0, "MEAN_MOTION_DOT": -4.9e-07, "MEAN_MOTION_DDOT": 0}, "tle": {"line1": "1 43508U 18053A   25347.72648486 -.00000049  00000+0  00000+0 0  9995", "line2": "2 43508  65.4732  80.0985 0008662 225.2125 134.7297  2.13102046 58320"}}, "geometry": {"type": "Point", "coordinates": [-111.07470142600545, 22.86056177665489]}}, {"type": "Feature", "properties": {"norad_id": 43687, "name": "COSMOS 2529 (757)", "group": "glo-ops", "lat": 62.53377466679403, "lon": -93.29028675348255, "alt_km": 19141.2798185317, "timestamp": "2025-12-16T17:51:11.192462+00:00", "meta": {"OBJECT_NAME": "COSMOS 2529 (757)", "OBJECT_ID": "2018-086A", "EPOCH": "2025-12-14T07:02:10.344192", "MEAN_MOTION": 2.13101932, "ECCENTRICITY": 0.00071555, "INCLINATION": 64.2921, "RA_OF_ASC_NODE": 198.8359, "ARG_OF_PERICENTER": 254.022, "MEAN_ANOMALY": 105.9754, "EPHEMERIS_TYPE": 0, "CLASSIFICATION_TYPE": "U", "NORAD_CAT_ID": 43687, "ELEMENT_SET_NO": 999, "REV_AT_EPOCH": 5534, "BSTAR": 0, "MEAN_MOTION_DOT": 9.3e-07, "MEAN_MOTION_DDOT": 0}, "tle": {"line1": "1 43687U 18086A   25348.29317528  .00000093  00000+0  00000+0 0  9990", "line2": "2 43687  64.2921 198.8359 0007155 254.0220 105.9754  2.13101932 55340"}}, "geometry": {"type": "Point", "coordinates": [-93.29028675348255, 62.53377466679403]}}, {"type": "Feature", "properties": {"norad_id": 44299, "name": "COSMOS 2534 (758)", "group": "glo-ops", "lat": -30.614700406200438, "lon": 35.27075407061922, "alt_km": 19126.121311315816, "timestamp": "2025-12-16T17:51:11.192473+00:00", "meta": {"OBJECT_NAME": "COSMOS 2534 (758)", "OBJECT_ID": "2019-030A", "EPOCH": "2025-12-15T05:49:22.027584", "MEAN_MOTION": 2.13102219, "ECCENTRICITY": 0.00088073, "INCLINATION": 64.3657, "RA_OF_ASC_NODE": 198.8086, "ARG_OF_PERICENTER": 283.8967, "MEAN_ANOMALY": 218.9019, "EPHEMERIS_TYPE": 0, "CLASSIFICATION_TYPE": "U", "NORAD_CAT_ID": 44299, "ELEMENT_SET_NO": 999, "REV_AT_EPOCH": 5100, "BSTAR": 0, "MEAN_MOTION_DOT": 1.03e-06, "MEAN_MOTION_DDOT": 0}, "tle": {"line1": "1 44299U 19030A   25349.24261606  .00000103  00000+0  00000+0 0  9993", "line2": "2 44299  64.3657 198.8086 0008807 283.8967 218.9019  2.13102219 51004"}}, "geometry": {"type": "Point", "coordinates": [35.27075407061922, -30.614700406200438]}}, {"type": "Feature", "properties": {"norad_id": 44850, "name": "COSMOS 2544 (759)", "group": "glo-ops", "lat": -15.563444611631727, "lon": -92.87142644748747, "alt_km": 19110.706819339368, "timestamp": "2025-12-16T17:51:11.192485+00:00", "meta": {"OBJECT_NAME": "COSMOS 2544 (759)", "OBJECT_ID": "2019-088A", "EPOCH": "2025-12-12T17:34:49.236384", "MEAN_MOTION": 2.13101902, "ECCENTRICITY": 0.001403, "INCLINATION": 65.4597, "RA_OF_ASC_NODE": 79.9587, "ARG_OF_PERICENTER": 249.9371, "MEAN_ANOMALY": 109.9261, "EPHEMERIS_TYPE": 0, "CLASSIFICATION_TYPE": "U", "NORAD_CAT_ID": 44850, "ELEMENT_SET_NO": 999, "REV_AT_EPOCH": 4674, "BSTAR": 0, "MEAN_MOTION_DOT": -4.1e-07, "MEAN_MOTION_DDOT": 0}, "tle": {"line1": "1 44850U 19088A   25346.73251431 -.00000041  00000+0  00000+0 0  9997", "line2": "2 44850  65.4597  79.9587 0014030 249.9371 109.9261  2.13101902 46745"}}, "geometry": {"type": "Point", "coordinates": [-92.87142644748747, -15.563444611631727]}}]}